[{"OBJECT_NAME":"HAWK-2B","OBJECT_ID":"2021-006CZ","EPOCH":"2026-03-09T16:13:51.664224","MEAN_MOTION":15.33301353,"ECCENTRICITY":0.00071021,"INCLINATION":97.2334,"RA_OF_ASC_NODE":114.114,"ARG_OF_PERICENTER":185.9063,"MEAN_ANOMALY":174.2098,"EPHEMERIS_TYPE":0,"CLASSIFICATION_TYPE":"U","NORAD_CAT_ID":47508,"ELEMENT_SET_NO":999,"REV_AT_EPOCH":28424,"BSTAR":0.00029650607,"MEAN_MOTION_DOT":9.474e-5,"MEAN_MOTION_DDOT":0},{"OBJECT_NAME":"STARLINK-31694","OBJECT_ID":"2024-120F","EPOCH":"2026-03-09T21:24:42.788160","MEAN_MOTION":15.30197502,"ECCENTRICITY":0.00010729,"INCLINATION":53.1611,"RA_OF_ASC_NODE":319.2365,"ARG_OF_PERICENTER":84.8513,"MEAN_ANOMALY":275.261,"EPHEMERIS_TYPE":0,"CLASSIFICATION_TYPE":"U","NORAD_CAT_ID":60140,"ELEMENT_SET_NO":999,"REV_AT_EPOCH":9648,"BSTAR":0.00046645359,"MEAN_MOTION_DOT":0.0001348,"MEAN_MOTION_DDOT":0}]
